{
  "type": "FeatureCollection",
  "features": [
    {
      "type": "Feature",
      "properties": {
        "norad_id": 31955,
        "name": "FENGYUN 1C DEB",
        "group": "fengyun-1c-debris",
        "lat": 75.96755657328978,
        "lon": 96.50530475515818,
        "alt_km": 651.9499498450577,
        "timestamp": "2025-12-23T11:34:48.447818+00:00",
        "meta_object_name": "FENGYUN 1C DEB",
        "meta_object_id": "1999-025CNG",
        "meta_epoch": "2025-12-21T21:41:07.179648",
        "meta_mean_motion": 14.64028697,
        "meta_eccentricity": 0.00435771,
        "meta_inclination": 99.2807,
        "meta_ra_of_asc_node": 233.8648,
        "meta_arg_of_pericenter": 152.6411,
        "meta_mean_anomaly": 271.1392,
        "meta_ephemeris_type": 0,
        "meta_classification_type": "U",
        "meta_norad_cat_id": 31955,
        "meta_element_set_no": 999,
        "meta_rev_at_epoch": 96691,
        "meta_bstar": 0.0014947189,
        "meta_mean_motion_dot": 7.894e-05,
        "meta_mean_motion_ddot": 0,
        "tle_line1": "1 31955U 99025CNG 25355.90355532  .00007894  00000+0  14947-2 0  9994",
        "tle_line2": "2 31955  99.2807 233.8648 0043577 152.6411 271.1392 14.64028697966913"
      },
      "geometry": {
        "type": "Point",
        "coordinates": [
          96.50530475515818,
          75.96755657328978
        ]
      }
    },
    {
      "type": "Feature",
      "properties": {
        "norad_id": 31959,
        "name": "FENGYUN 1C DEB",
        "group": "fengyun-1c-debris",
        "lat": -26.84398760889623,
        "lon": 44.19576624230275,
        "alt_km": 739.7388270398515,
        "timestamp": "2025-12-23T11:34:48.447827+00:00",
        "meta_object_name": "FENGYUN 1C DEB",
        "meta_object_id": "1999-025CNL",
        "meta_epoch": "2025-12-21T22:06:57.352032",
        "meta_mean_motion": 14.46896532,
        "meta_eccentricity": 0.00273534,
        "meta_inclination": 98.5099,
        "meta_ra_of_asc_node": 226.9733,
        "meta_arg_of_pericenter": 126.577,
        "meta_mean_anomaly": 233.7945,
        "meta_ephemeris_type": 0,
        "meta_classification_type": "U",
        "meta_norad_cat_id": 31959,
        "meta_element_set_no": 999,
        "meta_rev_at_epoch": 64486,
        "meta_bstar": 0.0023827795,
        "meta_mean_motion_dot": 8.652e-05,
        "meta_mean_motion_ddot": 0,
        "tle_line1": "1 31959U 99025CNL 25355.92149713  .00008652  00000+0  23828-2 0  9993",
        "tle_line2": "2 31959  98.5099 226.9733 0027353 126.5770 233.7945 14.46896532644868"
      },
      "geometry": {
        "type": "Point",
        "coordinates": [
          44.19576624230275,
          -26.84398760889623
        ]
      }
    },
    {
      "type": "Feature",
      "properties": {
        "norad_id": 31964,
        "name": "FENGYUN 1C DEB",
        "group": "fengyun-1c-debris",
        "lat": 78.48446883048472,
        "lon": 72.88280225429567,
        "alt_km": 688.6026646582195,
        "timestamp": "2025-12-23T11:34:48.447836+00:00",
        "meta_object_name": "FENGYUN 1C DEB",
        "meta_object_id": "1999-025CNR",
        "meta_epoch": "2025-12-22T03:55:34.128480",
        "meta_mean_motion": 14.58683548,
        "meta_eccentricity": 0.00285796,
        "meta_inclination": 98.7011,
        "meta_ra_of_asc_node": 120.238,
        "meta_arg_of_pericenter": 0.2334,
        "meta_mean_anomaly": 359.8872,
        "meta_ephemeris_type": 0,
        "meta_classification_type": "U",
        "meta_norad_cat_id": 31964,
        "meta_element_set_no": 999,
        "meta_rev_at_epoch": 67647,
        "meta_bstar": 0.0026112592,
        "meta_mean_motion_dot": 0.00012212,
        "meta_mean_motion_ddot": 0,
        "tle_line1": "1 31964U 99025CNR 25356.16358945  .00012212  00000+0  26113-2 0  9992",
        "tle_line2": "2 31964  98.7011 120.2380 0028579   0.2334 359.8872 14.58683548676474"
      },
      "geometry": {
        "type": "Point",
        "coordinates": [
          72.88280225429567,
          78.48446883048472
        ]
      }
    },
    {
      "type": "Feature",
      "properties": {
        "norad_id": 31966,
        "name": "FENGYUN 1C DEB",
        "group": "fengyun-1c-debris",
        "lat": 47.80794506798529,
        "lon": 141.06759192515335,
        "alt_km": 723.3115837134392,
        "timestamp": "2025-12-23T11:34:48.447845+00:00",
        "meta_object_name": "FENGYUN 1C DEB",
        "meta_object_id": "1999-025CNT",
        "meta_epoch": "2025-12-22T04:16:07.424544",
        "meta_mean_motion": 14.67667095,
        "meta_eccentricity": 0.00861501,
        "meta_inclination": 99.0169,
        "meta_ra_of_asc_node": 149.721,
        "meta_arg_of_pericenter": 245.6023,
        "meta_mean_anomaly": 113.6171,
        "meta_ephemeris_type": 0,
        "meta_classification_type": "U",
        "meta_norad_cat_id": 31966,
        "meta_element_set_no": 999,
        "meta_rev_at_epoch": 65881,
        "meta_bstar": 0.0014697462,
        "meta_mean_motion_dot": 8.787e-05,
        "meta_mean_motion_ddot": 0,
        "tle_line1": "1 31966U 99025CNT 25356.17786371  .00008787  00000+0  14697-2 0  9999",
        "tle_line2": "2 31966  99.0169 149.7210 0086150 245.6023 113.6171 14.67667095658816"
      },
      "geometry": {
        "type": "Point",
        "coordinates": [
          141.06759192515335,
          47.80794506798529
        ]
      }
    },
    {
      "type": "Feature",
      "properties": {
        "norad_id": 31972,
        "name": "FENGYUN 1C DEB",
        "group": "fengyun-1c-debris",
        "lat": -70.42156126965956,
        "lon": 66.4795844776037,
        "alt_km": 860.0428891523625,
        "timestamp": "2025-12-23T11:34:48.447854+00:00",
        "meta_object_name": "FENGYUN 1C DEB",
        "meta_object_id": "1999-025CNZ",
        "meta_epoch": "2025-12-22T02:03:55.063872",
        "meta_mean_motion": 14.07518261,
        "meta_eccentricity": 0.00765265,
        "meta_inclination": 99.2103,
        "meta_ra_of_asc_node": 37.9145,
        "meta_arg_of_pericenter": 5.9214,
        "meta_mean_anomaly": 50.28,
        "meta_ephemeris_type": 0,
        "meta_classification_type": "U",
        "meta_norad_cat_id": 31972,
        "meta_element_set_no": 999,
        "meta_rev_at_epoch": 95092,
        "meta_bstar": 0.00013990636,
        "meta_mean_motion_dot": 1.96e-06,
        "meta_mean_motion_ddot": 0,
        "tle_line1": "1 31972U 99025CNZ 25356.08605398  .00000196  00000+0  13991-3 0  9998",
        "tle_line2": "2 31972  99.2103  37.9145 0076526   5.9214  50.2800 14.07518261950929"
      },
      "geometry": {
        "type": "Point",
        "coordinates": [
          66.4795844776037,
          -70.42156126965956
        ]
      }
    },
    {
      "type": "Feature",
      "properties": {
        "norad_id": 31974,
        "name": "FENGYUN 1C DEB",
        "group": "fengyun-1c-debris",
        "lat": 10.785382924942816,
        "lon": -170.18929727465016,
        "alt_km": 804.5120028004703,
        "timestamp": "2025-12-23T11:34:48.447863+00:00",
        "meta_object_name": "FENGYUN 1C DEB",
        "meta_object_id": "1999-025CPB",
        "meta_epoch": "2025-12-21T18:28:16.954752",
        "meta_mean_motion": 14.29620732,
        "meta_eccentricity": 0.00713784,
        "meta_inclination": 98.3788,
        "meta_ra_of_asc_node": 6.554,
        "meta_arg_of_pericenter": 275.8649,
        "meta_mean_anomaly": 83.4401,
        "meta_ephemeris_type": 0,
        "meta_classification_type": "U",
        "meta_norad_cat_id": 31974,
        "meta_element_set_no": 999,
        "meta_rev_at_epoch": 69551,
        "meta_bstar": 0.0018711419,
        "meta_mean_motion_dot": 4.885e-05,
        "meta_mean_motion_ddot": 0,
        "tle_line1": "1 31974U 99025CPB 25355.76964068  .00004885  00000+0  18711-2 0  9999",
        "tle_line2": "2 31974  98.3788   6.5540 0071378 275.8649  83.4401 14.29620732695518"
      },
      "geometry": {
        "type": "Point",
        "coordinates": [
          -170.18929727465016,
          10.785382924942816
        ]
      }
    },
    {
      "type": "Feature",
      "properties": {
        "norad_id": 31978,
        "name": "FENGYUN 1C DEB",
        "group": "fengyun-1c-debris",
        "lat": 16.774323810633046,
        "lon": -26.417881267464217,
        "alt_km": 1174.8952946823147,
        "timestamp": "2025-12-23T11:34:48.447872+00:00",
        "meta_object_name": "FENGYUN 1C DEB",
        "meta_object_id": "1999-025CPF",
        "meta_epoch": "2025-12-18T09:15:01.115712",
        "meta_mean_motion": 13.63124115,
        "meta_eccentricity": 0.02630419,
        "meta_inclination": 98.3793,
        "meta_ra_of_asc_node": 146.6417,
        "meta_arg_of_pericenter": 35.0311,
        "meta_mean_anomaly": 326.7827,
        "meta_ephemeris_type": 0,
        "meta_classification_type": "U",
        "meta_norad_cat_id": 31978,
        "meta_element_set_no": 999,
        "meta_rev_at_epoch": 91667,
        "meta_bstar": 0.0010168637,
        "meta_mean_motion_dot": 9.73e-06,
        "meta_mean_motion_ddot": 0,
        "tle_line1": "1 31978U 99025CPF 25352.38542958  .00000973  00000+0  10169-2 0  9991",
        "tle_line2": "2 31978  98.3793 146.6417 0263041  35.0311 326.7827 13.63124115916678"
      },
      "geometry": {
        "type": "Point",
        "coordinates": [
          -26.417881267464217,
          16.774323810633046
        ]
      }
    }
  ]
}